ONEWEB-0683             
1 56719U 23068K   25043.39831848  .00000212  00000+0  52903-3 0  9991
2 56719  87.9121 356.7155 0001845  70.8914 289.2416 13.15550940 85027
ONEWEB-0684             
1 56720U 23068L   25043.55836920  .00000181  00000+0  44728-3 0  9998
2 56720  87.9094 356.7331 0003173  96.7330 263.4161 13.15550352 84879
ONEWEB-0686             
1 56721U 23068M   25043.51925647  .00000081  00000+0  17741-3 0  9994
2 56721  87.9123 326.4010 0002047  73.2597 286.8758 13.16596422 87283
ONEWEB-0694             
1 56722U 23068N   25043.48601153  .00000137  00000+0  32410-3 0  9996
2 56722  87.9124 326.3266 0001797  63.8890 296.2425 13.16592645 88032
ONEWEB-0696             
1 56723U 23068P   25043.59164264  .00000003  00000+0 -24735-4 0  9991
2 56723  87.9120 356.7287 0001966  89.5912 270.5443 13.15551328 84995
ONEWEB-0703             
1 56724U 23068Q   25043.60114005  .00000015  00000+0  55535-5 0  9997
2 56724  87.9102 356.7459 0002021 116.7615 243.3722 13.15548920 84883
ONEWEB-0721             
1 56725U 23068R   25043.58336806  .00000015  00000+0  00000+0 0  9991
2 56725  86.6718 241.5397 0000576 111.6748  75.0009 13.26514673 93922
ONEWEB-0015             
1 61594U 24188A   25043.58336806 -.00761051  00000+0 -34448+0 0  9994
2 61594  86.9674 122.3042 0005823 155.2353 235.0053 14.25007508 18046
